[{"OBJECT_NAME":"DMSP 5D-3 F18 (USA 210)","OBJECT_ID":"2009-057A","EPOCH":"2026-03-09T22:11:19.578624","MEAN_MOTION":14.14835918,"ECCENTRICITY":0.00111332,"INCLINATION":98.8964,"RA_OF_ASC_NODE":49.953,"ARG_OF_PERICENTER":167.567,"MEAN_ANOMALY":192.578,"EPHEMERIS_TYPE":0,"CLASSIFICATION_TYPE":"U","NORAD_CAT_ID":35951,"ELEMENT_SET_NO":999,"REV_AT_EPOCH":84555,"BSTAR":0.0001892164,"MEAN_MOTION_DOT":3.21e-6,"MEAN_MOTION_DDOT":0},{"OBJECT_NAME":"METEOR 2-4","OBJECT_ID":"1979-021A","EPOCH":"2026-03-09T23:17:15.100224","MEAN_MOTION":14.12317661,"ECCENTRICITY":0.00232431,"INCLINATION":81.2146,"RA_OF_ASC_NODE":235.2929,"ARG_OF_PERICENTER":215.857,"MEAN_ANOMALY":144.1043,"EPHEMERIS_TYPE":0,"CLASSIFICATION_TYPE":"U","NORAD_CAT_ID":11288,"ELEMENT_SET_NO":999,"REV_AT_EPOCH":42101,"BSTAR":4.0703906e-5,"MEAN_MOTION_DOT":8.8e-7,"MEAN_MOTION_DDOT":0}]
